{"type": "FeatureCollection", "features": [ {"type": "Feature", "properties": {"norad_id": 66625, "name": "STARLINK-35929", "group": "last-30-days", "lat": -38.44842537934083, "lon": 81.73689026470026, "alt_km": 451.7512970477501, "timestamp": "2025-12-27T06:41:29.617714+00:00", "meta": {"OBJECT_NAME": "STARLINK-35929", "OBJECT_ID": "2025-271J", "EPOCH": "2025-12-26T15:20:00.070080", "MEAN_MOTION": 15.39616872, "ECCENTRICITY": 0.0001083, "INCLINATION": 53.16, "RA_OF_ASC_NODE": 121.2837, "ARG_OF_PERICENTER": 75.7835, "MEAN_ANOMALY": 284.329, "EPHEMERIS_TYPE": 0, "CLASSIFICATION_TYPE": "U", "NORAD_CAT_ID": 66625, "ELEMENT_SET_NO": 999, "REV_AT_EPOCH": 635, "BSTAR": 0.0016868, "MEAN_MOTION_DOT": 0.00067664, "MEAN_MOTION_DDOT": 0}, "tle": {"line1": "1 66625U 25271J   25360.63888970  .00067664  00000+0  16868-2 0  9996", "line2": "2 66625  53.1600 121.2837 0001083  75.7835 284.3290 15.39616872  6353"}}, "geometry": {"type": "Point", "coordinates": [81.73689026470026, -38.44842537934083]}}, {"type": "Feature", "properties": {"norad_id": 66626, "name": "STARLINK-35902", "group": "last-30-days", "lat": -39.01426194675641, "lon": -24.17647124451639, "alt_km": 452.217551152502, "timestamp": "2025-12-27T06:41:29.617724+00:00", "meta": {"OBJECT_NAME": "STARLINK-35902", "OBJECT_ID": "2025-271K", "EPOCH": "2025-12-26T17:13:32.304000", "MEAN_MOTION": 15.39639162, "ECCENTRICITY": 0.00012731, "INCLINATION": 53.1599, "RA_OF_ASC_NODE": 121.0651, "ARG_OF_PERICENTER": 53.5743, "MEAN_ANOMALY": 306.5379, "EPHEMERIS_TYPE": 0, "CLASSIFICATION_TYPE": "U", "NORAD_CAT_ID": 66626, "ELEMENT_SET_NO": 999, "REV_AT_EPOCH": 636, "BSTAR": 0.0011857333, "MEAN_MOTION_DOT": 0.00047354, "MEAN_MOTION_DDOT": 0}, "tle": {"line1": "1 66626U 25271K   25360.71773500  .00047354  00000+0  11857-2 0  9995", "line2": "2 66626  53.1599 121.0651 0001273  53.5743 306.5379 15.39639162  6369"}}, "geometry": {"type": "Point", "coordinates": [-24.17647124451639, -39.01426194675641]}}, {"type": "Feature", "properties": {"norad_id": 66627, "name": "STARLINK-35904", "group": "last-30-days", "lat": -51.145383759058625, "lon": 49.78198845955615, "alt_km": 452.4352215171002, "timestamp": "2025-12-27T06:41:29.617734+00:00", "meta": {"OBJECT_NAME": "STARLINK-35904", "OBJECT_ID": "2025-271L", "EPOCH": "2025-12-26T15:26:41.300448", "MEAN_MOTION": 15.39622435, "ECCENTRICITY": 0.00011322, "INCLINATION": 53.1599, "RA_OF_ASC_NODE": 121.3119, "ARG_OF_PERICENTER": 64.408, "MEAN_ANOMALY": 295.7042, "EPHEMERIS_TYPE": 0, "CLASSIFICATION_TYPE": "U", "NORAD_CAT_ID": 66627, "ELEMENT_SET_NO": 999, "REV_AT_EPOCH": 631, "BSTAR": 0.0011822156, "MEAN_MOTION_DOT": 0.00047185, "MEAN_MOTION_DDOT": 0}, "tle": {"line1": "1 66627U 25271L   25360.64353357  .00047185  00000+0  11822-2 0  9996", "line2": "2 66627  53.1599 121.3119 0001132  64.4080 295.7042 15.39622435  6317"}}, "geometry": {"type": "Point", "coordinates": [49.78198845955615, -51.145383759058625]}}, {"type": "Feature", "properties": {"norad_id": 66628, "name": "STARLINK-35862", "group": "last-30-days", "lat": 40.18587025938317, "lon": 157.35037016489946, "alt_km": 441.2579823289152, "timestamp": "2025-12-27T06:41:29.617745+00:00", "meta": {"OBJECT_NAME": "STARLINK-35862", "OBJECT_ID": "2025-271M", "EPOCH": "2025-12-26T22:00:01.999584", "MEAN_MOTION": 15.3959211, "ECCENTRICITY": 0.00012416, "INCLINATION": 53.1599, "RA_OF_ASC_NODE": 119.7672, "ARG_OF_PERICENTER": 81.5527, "MEAN_ANOMALY": 124.0289, "EPHEMERIS_TYPE": 0, "CLASSIFICATION_TYPE": "U", "NORAD_CAT_ID": 66628, "ELEMENT_SET_NO": 999, "REV_AT_EPOCH": 608, "BSTAR": 0.0005943666, "MEAN_MOTION_DOT": 0.00023426, "MEAN_MOTION_DDOT": 0}, "tle": {"line1": "1 66628U 25271M   25360.91668981  .00023426  00000+0  59437-3 0  9996", "line2": "2 66628  53.1599 119.7672 0001241  81.5527 124.0289 15.39592110  6087"}}, "geometry": {"type": "Point", "coordinates": [157.35037016489946, 40.18587025938317]}}, {"type": "Feature", "properties": {"norad_id": 66629, "name": "STARLINK-35956", "group": "last-30-days", "lat": 27.417988015551675, "lon": 140.2790186701079, "alt_km": 385.19563119526447, "timestamp": "2025-12-27T06:41:29.617755+00:00", "meta": {"OBJECT_NAME": "STARLINK-35956", "OBJECT_ID": "2025-271N", "EPOCH": "2025-12-26T21:17:59.677728", "MEAN_MOTION": 15.57064747, "ECCENTRICITY": 0.00099151, "INCLINATION": 53.1713, "RA_OF_ASC_NODE": 119.2953, "ARG_OF_PERICENTER": 27.4923, "MEAN_ANOMALY": 332.6612, "EPHEMERIS_TYPE": 0, "CLASSIFICATION_TYPE": "U", "NORAD_CAT_ID": 66629, "ELEMENT_SET_NO": 999, "REV_AT_EPOCH": 126, "BSTAR": 0.0067511274, "MEAN_MOTION_DOT": 0.00531939, "MEAN_MOTION_DDOT": 0}, "tle": {"line1": "1 66629U 25271N   25360.88749627  .00531939  00000+0  67511-2 0  9994", "line2": "2 66629  53.1713 119.2953 0009915  27.4923 332.6612 15.57064747  1260"}}, "geometry": {"type": "Point", "coordinates": [140.2790186701079, 27.417988015551675]}}, {"type": "Feature", "properties": {"norad_id": 66630, "name": "STARLINK-35949", "group": "last-30-days", "lat": 51.425493418956414, "lon": -171.93573684011193, "alt_km": 439.98461210771075, "timestamp": "2025-12-27T06:41:29.617765+00:00", "meta": {"OBJECT_NAME": "STARLINK-35949", "OBJECT_ID": "2025-271P", "EPOCH": "2025-12-26T22:00:01.999584", "MEAN_MOTION": 15.39592238, "ECCENTRICITY": 6.231e-05, "INCLINATION": 53.1601, "RA_OF_ASC_NODE": 119.7182, "ARG_OF_PERICENTER": 48.4677, "MEAN_ANOMALY": 181.0345, "EPHEMERIS_TYPE": 0, "CLASSIFICATION_TYPE": "U", "NORAD_CAT_ID": 66630, "ELEMENT_SET_NO": 999, "REV_AT_EPOCH": 603, "BSTAR": 0.00050248982, "MEAN_MOTION_DOT": 0.00019733, "MEAN_MOTION_DDOT": 0}, "tle": {"line1": "1 66630U 25271P   25360.91668981  .00019733  00000+0  50249-3 0  9997", "line2": "2 66630  53.1601 119.7182 0000623  48.4677 181.0345 15.39592238  6033"}}, "geometry": {"type": "Point", "coordinates": [-171.93573684011193, 51.425493418956414]}}, {"type": "Feature", "properties": {"norad_id": 66631, "name": "STARLINK-35965", "group": "last-30-days", "lat": 51.89156132272192, "lon": -169.07825564772546, "alt_km": 439.8094601233306, "timestamp": "2025-12-27T06:41:29.617779+00:00", "meta": {"OBJECT_NAME": "STARLINK-35965", "OBJECT_ID": "2025-271Q", "EPOCH": "2025-12-26T22:00:01.999584", "MEAN_MOTION": 15.39578891, "ECCENTRICITY": 7.46e-05, "INCLINATION": 53.1599, "RA_OF_ASC_NODE": 119.715, "ARG_OF_PERICENTER": 77.4213, "MEAN_ANOMALY": 153.9297, "EPHEMERIS_TYPE": 0, "CLASSIFICATION_TYPE": "U", "NORAD_CAT_ID": 66631, "ELEMENT_SET_NO": 999, "REV_AT_EPOCH": 591, "BSTAR": 0.00069092841, "MEAN_MOTION_DOT": 0.00027299, "MEAN_MOTION_DDOT": 0}, "tle": {"line1": "1 66631U 25271Q   25360.91668981  .00027299  00000+0  69093-3 0  9991", "line2": "2 66631  53.1599 119.7150 0000746  77.4213 153.9297 15.39578891  5918"}}, "geometry": {"type": "Point", "coordinates": [-169.07825564772546, 51.89156132272192]}}, {"type": "Feature", "properties": {"norad_id": 66632, "name": "STARLINK-35973", "group": "last-30-days", "lat": -0.3710271926520769, "lon": -61.195774563463665, "alt_km": 449.07439190812966, "timestamp": "2025-12-27T06:41:29.617792+00:00", "meta": {"OBJECT_NAME": "STARLINK-35973", "OBJECT_ID": "2025-271R", "EPOCH": "2025-12-26T17:26:55.042944", "MEAN_MOTION": 15.39664523, "ECCENTRICITY": 0.00021729, "INCLINATION": 53.1617, "RA_OF_ASC_NODE": 121.127, "ARG_OF_PERICENTER": 35.2508, "MEAN_ANOMALY": 324.864, "EPHEMERIS_TYPE": 0, "CLASSIFICATION_TYPE": "U", "NORAD_CAT_ID": 66632, "ELEMENT_SET_NO": 999, "REV_AT_EPOCH": 632, "BSTAR": 0.0012860701, "MEAN_MOTION_DOT": 0.00051467, "MEAN_MOTION_DDOT": 0}, "tle": {"line1": "1 66632U 25271R   25360.72702596  .00051467  00000+0  12861-2 0  9996", "line2": "2 66632  53.1617 121.1270 0002172  35.2508 324.8640 15.39664523  6329"}}, "geometry": {"type": "Point", "coordinates": [-61.195774563463665, -0.3710271926520769]}}, {"type": "Feature", "properties": {"norad_id": 66633, "name": "STARLINK-35948", "group": "last-30-days", "lat": -1.812988166924117, "lon": -60.11999742047682, "alt_km": 448.3946009607598, "timestamp": "2025-12-27T06:41:29.617802+00:00", "meta": {"OBJECT_NAME": "STARLINK-35948", "OBJECT_ID": "2025-271S", "EPOCH": "2025-12-26T17:26:26.128320", "MEAN_MOTION": 15.39638494, "ECCENTRICITY": 0.00010808, "INCLINATION": 53.1606, "RA_OF_ASC_NODE": 121.1227, "ARG_OF_PERICENTER": 69.9057, "MEAN_ANOMALY": 290.2065, "EPHEMERIS_TYPE": 0, "CLASSIFICATION_TYPE": "U", "NORAD_CAT_ID": 66633, "ELEMENT_SET_NO": 999, "REV_AT_EPOCH": 636, "BSTAR": 0.0013683003, "MEAN_MOTION_DOT": 0.00054759, "MEAN_MOTION_DDOT": 0}, "tle": {"line1": "1 66633U 25271S   25360.72669130  .00054759  00000+0  13683-2 0  9993", "line2": "2 66633  53.1606 121.1227 0001080  69.9057 290.2065 15.39638494  6369"}}, "geometry": {"type": "Point", "coordinates": [-60.11999742047682, -1.812988166924117]}}, {"type": "Feature", "properties": {"norad_id": 66634, "name": "STARLINK-35967", "group": "last-30-days", "lat": -22.193741910040718, "lon": -43.7260531289235, "alt_km": 450.5103409779076, "timestamp": "2025-12-27T06:41:29.617812+00:00", "meta": {"OBJECT_NAME": "STARLINK-35967", "OBJECT_ID": "2025-271T", "EPOCH": "2025-12-26T14:12:47.342304", "MEAN_MOTION": 15.39676406, "ECCENTRICITY": 0.0001064, "INCLINATION": 53.1614, "RA_OF_ASC_NODE": 121.7016, "ARG_OF_PERICENTER": 81.6663, "MEAN_ANOMALY": 278.4463, "EPHEMERIS_TYPE": 0, "CLASSIFICATION_TYPE": "U", "NORAD_CAT_ID": 66634, "ELEMENT_SET_NO": 999, "REV_AT_EPOCH": 630, "BSTAR": 0.0014187, "MEAN_MOTION_DOT": 0.00056878, "MEAN_MOTION_DDOT": 0}, "tle": {"line1": "1 66634U 25271T   25360.59221461  .00056878  00000+0  14187-2 0  9994", "line2": "2 66634  53.1614 121.7016 0001064  81.6663 278.4463 15.39676406  6306"}}, "geometry": {"type": "Point", "coordinates": [-43.7260531289235, -22.193741910040718]}}]}